{"type": "FeatureCollection", "features": [{"type": "Feature", "properties": {"norad_id": 28890, "name": "BEIJING 1", "group": "dmc", "lat": -28.104151760856844, "lon": -72.3303948494, "alt_km": 682.9141542609277, "timestamp": "2025-12-10T14:53:36.788965+00:00", "meta": {"OBJECT_NAME": "BEIJING 1", "OBJECT_ID": "2005-043A", "EPOCH": "2025-12-10T07:22:53.334336", "MEAN_MOTION": 14.63361674, "ECCENTRICITY": 0.00151803, "INCLINATION": 98.2657, "RA_OF_ASC_NODE": 111.8085, "ARG_OF_PERICENTER": 148.5232, "MEAN_ANOMALY": 211.6882, "EPHEMERIS_TYPE": 0, "CLASSIFICATION_TYPE": "U", "NORAD_CAT_ID": 28890, "ELEMENT_SET_NO": 999, "REV_AT_EPOCH": 7302, "BSTAR": 8.9522308e-05, "MEAN_MOTION_DOT": 4.14e-06, "MEAN_MOTION_DDOT": 0}, "tle": {"line1": "1 28890U 05043A   25344.30756174  .00000414  00000+0  89522-4 0  9998", "line2": "2 28890  98.2657 111.8085 0015180 148.5232 211.6882 14.63361674 73021"}}, "geometry": {"type": "Point", "coordinates": [-72.3303948494, -28.104151760856844]}}, {"type": "Feature", "properties": {"norad_id": 33320, "name": "HUANJING 1A (HJ-1A)", "group": "dmc", "lat": 79.800435338116, "lon": -75.36455672361774, "alt_km": 600.7211230610746, "timestamp": "2025-12-10T14:53:36.788994+00:00", "meta": {"OBJECT_NAME": "HUANJING 1A (HJ-1A)", "OBJECT_ID": "2008-041A", "EPOCH": "2025-12-10T06:25:35.447232", "MEAN_MOTION": 14.83383307, "ECCENTRICITY": 0.00203597, "INCLINATION": 97.6544, "RA_OF_ASC_NODE": 332.6693, "ARG_OF_PERICENTER": 42.1863, "MEAN_ANOMALY": 318.0914, "EPHEMERIS_TYPE": 0, "CLASSIFICATION_TYPE": "U", "NORAD_CAT_ID": 33320, "ELEMENT_SET_NO": 999, "REV_AT_EPOCH": 93039, "BSTAR": 0.00038977285, "MEAN_MOTION_DOT": 3.157e-05, "MEAN_MOTION_DDOT": 0}, "tle": {"line1": "1 33320U 08041A   25344.26777138  .00003157  00000+0  38977-3 0  9995", "line2": "2 33320  97.6544 332.6693 0020359  42.1863 318.0914 14.83383307930393"}}, "geometry": {"type": "Point", "coordinates": [-75.36455672361774, 79.800435338116]}}, {"type": "Feature", "properties": {"norad_id": 33321, "name": "HUANJING 1B (HJ-1B)", "group": "dmc", "lat": -51.18099885792402, "lon": -13.686232461492974, "alt_km": 645.9863564150546, "timestamp": "2025-12-10T14:53:36.789007+00:00", "meta": {"OBJECT_NAME": "HUANJING 1B (HJ-1B)", "OBJECT_ID": "2008-041B", "EPOCH": "2025-12-10T07:01:46.965216", "MEAN_MOTION": 14.82812638, "ECCENTRICITY": 0.00382897, "INCLINATION": 97.64, "RA_OF_ASC_NODE": 336.3968, "ARG_OF_PERICENTER": 83.3568, "MEAN_ANOMALY": 277.2002, "EPHEMERIS_TYPE": 0, "CLASSIFICATION_TYPE": "U", "NORAD_CAT_ID": 33321, "ELEMENT_SET_NO": 999, "REV_AT_EPOCH": 93041, "BSTAR": 0.00028899851, "MEAN_MOTION_DOT": 2.316e-05, "MEAN_MOTION_DDOT": 0}, "tle": {"line1": "1 33321U 08041B   25344.29290469  .00002316  00000+0  28900-3 0  9997", "line2": "2 33321  97.6400 336.3968 0038289  83.3568 277.2002 14.82812638930411"}}, "geometry": {"type": "Point", "coordinates": [-13.686232461492974, -51.18099885792402]}}, {"type": "Feature", "properties": {"norad_id": 33446, "name": "YAOGAN-4", "group": "dmc", "lat": -40.677438300173485, "lon": 87.87073470379126, "alt_km": 630.6870820425138, "timestamp": "2025-12-10T14:53:36.789018+00:00", "meta": {"OBJECT_NAME": "YAOGAN-4", "OBJECT_ID": "2008-061A", "EPOCH": "2025-12-10T07:25:11.200224", "MEAN_MOTION": 14.82670816, "ECCENTRICITY": 0.00137789, "INCLINATION": 97.918, "RA_OF_ASC_NODE": 274.4323, "ARG_OF_PERICENTER": 331.6323, "MEAN_ANOMALY": 28.4138, "EPHEMERIS_TYPE": 0, "CLASSIFICATION_TYPE": "U", "NORAD_CAT_ID": 33446, "ELEMENT_SET_NO": 999, "REV_AT_EPOCH": 91767, "BSTAR": 0.0003148175, "MEAN_MOTION_DOT": 2.489e-05, "MEAN_MOTION_DDOT": 0}, "tle": {"line1": "1 33446U 08061A   25344.30915741  .00002489  00000+0  31482-3 0  9996", "line2": "2 33446  97.9180 274.4323 0013778 331.6323  28.4138 14.82670816917677"}}, "geometry": {"type": "Point", "coordinates": [87.87073470379126, -40.677438300173485]}}, {"type": "Feature", "properties": {"norad_id": 35681, "name": "DEIMOS-1", "group": "dmc", "lat": 49.22410287877046, "lon": 136.27882905013203, "alt_km": 639.2533743037402, "timestamp": "2025-12-10T14:53:36.789028+00:00", "meta": {"OBJECT_NAME": "DEIMOS-1", "OBJECT_ID": "2009-041A", "EPOCH": "2025-12-10T06:31:39.347616", "MEAN_MOTION": 14.74945249, "ECCENTRICITY": 0.00027547, "INCLINATION": 97.7149, "RA_OF_ASC_NODE": 144.99, "ARG_OF_PERICENTER": 83.6616, "MEAN_ANOMALY": 276.4907, "EPHEMERIS_TYPE": 0, "CLASSIFICATION_TYPE": "U", "NORAD_CAT_ID": 35681, "ELEMENT_SET_NO": 999, "REV_AT_EPOCH": 87903, "BSTAR": 0.00012954051, "MEAN_MOTION_DOT": 8.23e-06, "MEAN_MOTION_DDOT": 0}, "tle": {"line1": "1 35681U 09041A   25344.27198319  .00000823  00000+0  12954-3 0  9991", "line2": "2 35681  97.7149 144.9900 0002754  83.6616 276.4907 14.74945249879038"}}, "geometry": {"type": "Point", "coordinates": [136.27882905013203, 49.22410287877046]}}, {"type": "Feature", "properties": {"norad_id": 35683, "name": "UK-DMC 2", "group": "dmc", "lat": 58.89823665192348, "lon": 106.35155730267503, "alt_km": 636.7421017010665, "timestamp": "2025-12-10T14:53:36.789038+00:00", "meta": {"OBJECT_NAME": "UK-DMC 2", "OBJECT_ID": "2009-041C", "EPOCH": "2025-12-10T08:06:49.555584", "MEAN_MOTION": 14.75612222, "ECCENTRICITY": 0.0001387, "INCLINATION": 97.8565, "RA_OF_ASC_NODE": 119.3084, "ARG_OF_PERICENTER": 97.6641, "MEAN_ANOMALY": 262.4726, "EPHEMERIS_TYPE": 0, "CLASSIFICATION_TYPE": "U", "NORAD_CAT_ID": 35683, "ELEMENT_SET_NO": 999, "REV_AT_EPOCH": 87871, "BSTAR": 0.00020244215, "MEAN_MOTION_DOT": 1.332e-05, "MEAN_MOTION_DDOT": 0}, "tle": {"line1": "1 35683U 09041C   25344.33807356  .00001332  00000+0  20244-3 0  9995", "line2": "2 35683  97.8565 119.3084 0001387  97.6641 262.4726 14.75612222878717"}}, "geometry": {"type": "Point", "coordinates": [106.35155730267503, 58.89823665192348]}}, {"type": "Feature", "properties": {"norad_id": 40715, "name": "DMC3-FM1", "group": "dmc", "lat": 33.69740215157086, "lon": -153.26536969972867, "alt_km": 608.6285802351167, "timestamp": "2025-12-10T14:53:36.789048+00:00", "meta": {"OBJECT_NAME": "DMC3-FM1", "OBJECT_ID": "2015-032A", "EPOCH": "2025-12-10T06:39:26.925408", "MEAN_MOTION": 14.85434758, "ECCENTRICITY": 0.00048324, "INCLINATION": 97.6689, "RA_OF_ASC_NODE": 211.5593, "ARG_OF_PERICENTER": 331.7359, "MEAN_ANOMALY": 28.3594, "EPHEMERIS_TYPE": 0, "CLASSIFICATION_TYPE": "U", "NORAD_CAT_ID": 40715, "ELEMENT_SET_NO": 999, "REV_AT_EPOCH": 56186, "BSTAR": 0.00016736346, "MEAN_MOTION_DOT": 1.391e-05, "MEAN_MOTION_DDOT": 0}, "tle": {"line1": "1 40715U 15032A   25344.27739497  .00001391  00000+0  16736-3 0  9993", "line2": "2 40715  97.6689 211.5593 0004832 331.7359  28.3594 14.85434758561864"}}, "geometry": {"type": "Point", "coordinates": [-153.26536969972867, 33.69740215157086]}}, {"type": "Feature", "properties": {"norad_id": 40716, "name": "DMC3-FM2", "group": "dmc", "lat": -81.44686980883252, "lon": -82.95548177540545, "alt_km": 617.6995624858964, "timestamp": "2025-12-10T14:53:36.789058+00:00", "meta": {"OBJECT_NAME": "DMC3-FM2", "OBJECT_ID": "2015-032B", "EPOCH": "2025-12-10T05:34:50.832192", "MEAN_MOTION": 14.85432556, "ECCENTRICITY": 0.00055816, "INCLINATION": 97.6746, "RA_OF_ASC_NODE": 212.9582, "ARG_OF_PERICENTER": 336.1297, "MEAN_ANOMALY": 23.9659, "EPHEMERIS_TYPE": 0, "CLASSIFICATION_TYPE": "U", "NORAD_CAT_ID": 40716, "ELEMENT_SET_NO": 999, "REV_AT_EPOCH": 56185, "BSTAR": 5.5379567e-05, "MEAN_MOTION_DOT": 4.26e-06, "MEAN_MOTION_DDOT": 0}, "tle": {"line1": "1 40716U 15032B   25344.23253278  .00000426  00000+0  55380-4 0  9995", "line2": "2 40716  97.6746 212.9582 0005581 336.1297  23.9659 14.85432556561850"}}, "geometry": {"type": "Point", "coordinates": [-82.95548177540545, -81.44686980883252]}}, {"type": "Feature", "properties": {"norad_id": 40717, "name": "DMC3-FM3", "group": "dmc", "lat": 21.32880830415835, "lon": 37.983882186378054, "alt_km": 615.5852697805858, "timestamp": "2025-12-10T14:53:36.789068+00:00", "meta": {"OBJECT_NAME": "DMC3-FM3", "OBJECT_ID": "2015-032C", "EPOCH": "2025-12-10T06:05:57.647616", "MEAN_MOTION": 14.8542281, "ECCENTRICITY": 0.0004908, "INCLINATION": 97.6799, "RA_OF_ASC_NODE": 214.6102, "ARG_OF_PERICENTER": 337.5657, "MEAN_ANOMALY": 22.5343, "EPHEMERIS_TYPE": 0, "CLASSIFICATION_TYPE": "U", "NORAD_CAT_ID": 40717, "ELEMENT_SET_NO": 999, "REV_AT_EPOCH": 56186, "BSTAR": 8.4885094e-05, "MEAN_MOTION_DOT": 6.8e-06, "MEAN_MOTION_DDOT": 0}, "tle": {"line1": "1 40717U 15032C   25344.25413944  .00000680  00000+0  84885-4 0  9990", "line2": "2 40717  97.6799 214.6102 0004908 337.5657  22.5343 14.85422810561861"}}, "geometry": {"type": "Point", "coordinates": [37.983882186378054, 21.32880830415835]}}]}